{"RECORDS":[{"CCSDS_OMM_VERS":6031.58,"CREATION_DATE":"2066-06-06T19:43:19.152Z","ORIGINATOR":"Kautzer, Torphy and Conroy","OBJECT_NAME":"ZpF\"D8ad#N","OBJECT_ID":"o`n_GRLt|k","CENTER_NAME":"\\0F@S&o?Ht","REF_FRAME":1,"REF_FRAME_EPOCH":"2031-08-30T13:18:47.001Z","TIME_SYSTEM":3,"MEAN_ELEMENT_THEORY":2,"COMMENT":"Te!`9P265k","EPOCH":"2089-04-18T18:58:44.212Z","SEMI_MAJOR_AXIS":62941.45,"MEAN_MOTION":71375.04,"ECCENTRICITY":84460.34,"INCLINATION":63572.37,"RA_OF_ASC_NODE":14579.07,"ARG_OF_PERICENTER":58106.09,"MEAN_ANOMALY":86860.31,"GM":70290.94,"MASS":8192.15,"SOLAR_RAD_AREA":78373.08,"SOLAR_RAD_COEFF":57941.04,"DRAG_AREA":61451.09,"DRAG_COEFF":40045.54,"EPHEMERIS_TYPE":2,"CLASSIFICATION_TYPE":"9X\\;7Sy:8y","NORAD_CAT_ID":3312128680,"ELEMENT_SET_NO":191929999,"REV_AT_EPOCH":73822.21,"BSTAR":25033.74,"MEAN_MOTION_DOT":79226.67,"MEAN_MOTION_DDOT":98614.5,"COV_REF_FRAME":2,"CX_X":59367.37,"CY_X":12290.08,"CY_Y":14099.3,"CZ_X":75945.29,"CZ_Y":4834.17,"CZ_Z":52245.7,"CX_DOT_X":76628.34,"CX_DOT_Y":85536.62,"CX_DOT_Z":62674.11,"CX_DOT_X_DOT":71001.45,"CY_DOT_X":55047.97,"CY_DOT_Y":97251.94,"CY_DOT_Z":32196.31,"CY_DOT_X_DOT":36207.75,"CY_DOT_Y_DOT":17935.02,"CZ_DOT_X":34131.65,"CZ_DOT_Y":15239.42,"CZ_DOT_Z":16216.56,"CZ_DOT_X_DOT":23898.59,"CZ_DOT_Y_DOT":77058.53,"CZ_DOT_Z_DOT":27944.68,"USER_DEFINED_BIP_0044_TYPE":1290590533,"USER_DEFINED_OBJECT_DESIGNATOR":"4JZ;2C\"%=u","USER_DEFINED_EARTH_MODEL":"Jc!L3p%+;Z","USER_DEFINED_EPOCH_TIMESTAMP":52271.45,"USER_DEFINED_MICROSECONDS":22874.77},{"CCSDS_OMM_VERS":51641.97,"CREATION_DATE":"2058-08-24T04:45:22.793Z","ORIGINATOR":"Hansen and Sons","OBJECT_NAME":"B}6KEQ`/hw","OBJECT_ID":";nsjgMM8{^","CENTER_NAME":"@/xq:HPX!F","REF_FRAME":4,"REF_FRAME_EPOCH":"2091-06-28T11:29:10.557Z","TIME_SYSTEM":10,"MEAN_ELEMENT_THEORY":1,"COMMENT":"|_.8MKscK;","EPOCH":"2041-01-10T18:33:25.095Z","SEMI_MAJOR_AXIS":92594.49,"MEAN_MOTION":64815.7,"ECCENTRICITY":37854.92,"INCLINATION":78829.08,"RA_OF_ASC_NODE":73424.83,"ARG_OF_PERICENTER":91413.56,"MEAN_ANOMALY":25646.75,"GM":29013.17,"MASS":16763.05,"SOLAR_RAD_AREA":85757.62,"SOLAR_RAD_COEFF":73301.64,"DRAG_AREA":99876.96,"DRAG_COEFF":26774.29,"EPHEMERIS_TYPE":0,"CLASSIFICATION_TYPE":"!aub5x'M;_","NORAD_CAT_ID":2475864695,"ELEMENT_SET_NO":1834325817,"REV_AT_EPOCH":56509.14,"BSTAR":36161.44,"MEAN_MOTION_DOT":89482.61,"MEAN_MOTION_DDOT":40314.62,"COV_REF_FRAME":1,"CX_X":73352.63,"CY_X":45802.04,"CY_Y":37740.13,"CZ_X":62645.67,"CZ_Y":82086.35,"CZ_Z":10510.59,"CX_DOT_X":87686.36,"CX_DOT_Y":18245.01,"CX_DOT_Z":2506.64,"CX_DOT_X_DOT":46788.2,"CY_DOT_X":49826.88,"CY_DOT_Y":4358.06,"CY_DOT_Z":47140.5,"CY_DOT_X_DOT":31831.28,"CY_DOT_Y_DOT":76478.45,"CZ_DOT_X":80175.2,"CZ_DOT_Y":91087.41,"CZ_DOT_Z":47477.22,"CZ_DOT_X_DOT":54693.73,"CZ_DOT_Y_DOT":94210.95,"CZ_DOT_Z_DOT":16842.81,"USER_DEFINED_BIP_0044_TYPE":3493219294,"USER_DEFINED_OBJECT_DESIGNATOR":"Hfuf3^!,%#","USER_DEFINED_EARTH_MODEL":"K{7o0)P^60","USER_DEFINED_EPOCH_TIMESTAMP":87461.46,"USER_DEFINED_MICROSECONDS":87641.49},{"CCSDS_OMM_VERS":91312.32,"CREATION_DATE":"2027-07-30T07:43:20.698Z","ORIGINATOR":"Shanahan Inc","OBJECT_NAME":"s?j&1lP,]Z","OBJECT_ID":">>F1q,Zcwp","CENTER_NAME":"Ub8JG3(RJa","REF_FRAME":10,"REF_FRAME_EPOCH":"2074-01-26T09:55:58.810Z","TIME_SYSTEM":11,"MEAN_ELEMENT_THEORY":0,"COMMENT":"`O89\\iR(dl","EPOCH":"1994-05-23T09:55:54.855Z","SEMI_MAJOR_AXIS":98218.15,"MEAN_MOTION":17701.47,"ECCENTRICITY":52834.36,"INCLINATION":23577.65,"RA_OF_ASC_NODE":29150.07,"ARG_OF_PERICENTER":72075.51,"MEAN_ANOMALY":56690.75,"GM":28671.98,"MASS":81717.28,"SOLAR_RAD_AREA":5923.81,"SOLAR_RAD_COEFF":1575.83,"DRAG_AREA":94374.85,"DRAG_COEFF":75068.36,"EPHEMERIS_TYPE":4,"CLASSIFICATION_TYPE":"zC*$^$N-oi","NORAD_CAT_ID":584781983,"ELEMENT_SET_NO":3790691386,"REV_AT_EPOCH":21570.54,"BSTAR":82840.24,"MEAN_MOTION_DOT":35248.21,"MEAN_MOTION_DDOT":68462.95,"COV_REF_FRAME":2,"CX_X":72687.28,"CY_X":58884.25,"CY_Y":63206.64,"CZ_X":17376.51,"CZ_Y":49924.15,"CZ_Z":28724.23,"CX_DOT_X":98292.45,"CX_DOT_Y":33302.22,"CX_DOT_Z":16370.02,"CX_DOT_X_DOT":49470.31,"CY_DOT_X":17893.47,"CY_DOT_Y":36513.28,"CY_DOT_Z":75595.46,"CY_DOT_X_DOT":23053.62,"CY_DOT_Y_DOT":90728.78,"CZ_DOT_X":26559.22,"CZ_DOT_Y":57131.29,"CZ_DOT_Z":1011.38,"CZ_DOT_X_DOT":81.35,"CZ_DOT_Y_DOT":35687.94,"CZ_DOT_Z_DOT":26755.74,"USER_DEFINED_BIP_0044_TYPE":1025061624,"USER_DEFINED_OBJECT_DESIGNATOR":"4;_dUR$7)3","USER_DEFINED_EARTH_MODEL":"/]cEL\"3.*0","USER_DEFINED_EPOCH_TIMESTAMP":74538.55,"USER_DEFINED_MICROSECONDS":515.36},{"CCSDS_OMM_VERS":73542.14,"CREATION_DATE":"2005-09-28T06:25:55.880Z","ORIGINATOR":"Nader and Sons","OBJECT_NAME":"3`O)E]R'`L","OBJECT_ID":":\"'<m/F8[_","CENTER_NAME":"2$X(Rq\\`N8","REF_FRAME":3,"REF_FRAME_EPOCH":"2035-05-14T03:27:53.508Z","TIME_SYSTEM":4,"MEAN_ELEMENT_THEORY":1,"COMMENT":"Alm)+#L3)D","EPOCH":"2010-11-28T01:24:46.187Z","SEMI_MAJOR_AXIS":17463.61,"MEAN_MOTION":88955.91,"ECCENTRICITY":94855.13,"INCLINATION":50227.14,"RA_OF_ASC_NODE":4662.82,"ARG_OF_PERICENTER":74199.94,"MEAN_ANOMALY":89802.12,"GM":94869.96,"MASS":34197.97,"SOLAR_RAD_AREA":31320.3,"SOLAR_RAD_COEFF":4872.8,"DRAG_AREA":43140.3,"DRAG_COEFF":55763.51,"EPHEMERIS_TYPE":2,"CLASSIFICATION_TYPE":"*C5ia'ajlQ","NORAD_CAT_ID":2065655075,"ELEMENT_SET_NO":435938999,"REV_AT_EPOCH":18273.64,"BSTAR":25881.36,"MEAN_MOTION_DOT":68226.86,"MEAN_MOTION_DDOT":634.21,"COV_REF_FRAME":0,"CX_X":31759.37,"CY_X":13100.05,"CY_Y":25083.58,"CZ_X":27626.43,"CZ_Y":46697.14,"CZ_Z":72006.06,"CX_DOT_X":45286.33,"CX_DOT_Y":9298.03,"CX_DOT_Z":76987.91,"CX_DOT_X_DOT":63453.71,"CY_DOT_X":72970.33,"CY_DOT_Y":41743.09,"CY_DOT_Z":27172.36,"CY_DOT_X_DOT":89471.28,"CY_DOT_Y_DOT":84467.68,"CZ_DOT_X":13547.04,"CZ_DOT_Y":44318.34,"CZ_DOT_Z":82931.85,"CZ_DOT_X_DOT":88346.64,"CZ_DOT_Y_DOT":20489.84,"CZ_DOT_Z_DOT":24712.74,"USER_DEFINED_BIP_0044_TYPE":1636358244,"USER_DEFINED_OBJECT_DESIGNATOR":"0}$ADE-V{c","USER_DEFINED_EARTH_MODEL":"f{VG5>{CpA","USER_DEFINED_EPOCH_TIMESTAMP":29029.23,"USER_DEFINED_MICROSECONDS":69756.35},{"CCSDS_OMM_VERS":88908.98,"CREATION_DATE":"2056-01-05T10:15:45.545Z","ORIGINATOR":"Abernathy, Hamill and Yundt","OBJECT_NAME":"ki;e\\#q=N$","OBJECT_ID":"AN[gQNy7+8","CENTER_NAME":"[B\\<PFr-M>","REF_FRAME":5,"REF_FRAME_EPOCH":"2050-07-28T03:48:56.431Z","TIME_SYSTEM":0,"MEAN_ELEMENT_THEORY":2,"COMMENT":"Yw8|N;N/ZV","EPOCH":"2086-03-02T06:33:36.971Z","SEMI_MAJOR_AXIS":43978.82,"MEAN_MOTION":30652.82,"ECCENTRICITY":63198.15,"INCLINATION":18873.91,"RA_OF_ASC_NODE":76645.63,"ARG_OF_PERICENTER":83289.02,"MEAN_ANOMALY":35283.03,"GM":11054.21,"MASS":60651.11,"SOLAR_RAD_AREA":1172.7,"SOLAR_RAD_COEFF":11567.4,"DRAG_AREA":63934.89,"DRAG_COEFF":16033.71,"EPHEMERIS_TYPE":0,"CLASSIFICATION_TYPE":"j>]`^(QS0h","NORAD_CAT_ID":965777794,"ELEMENT_SET_NO":814989593,"REV_AT_EPOCH":90997.38,"BSTAR":14475.31,"MEAN_MOTION_DOT":23259.69,"MEAN_MOTION_DDOT":21700.31,"COV_REF_FRAME":1,"CX_X":504.98,"CY_X":99371.05,"CY_Y":51668.77,"CZ_X":7631.02,"CZ_Y":90899.35,"CZ_Z":54701.24,"CX_DOT_X":35236.7,"CX_DOT_Y":57624.46,"CX_DOT_Z":27085.89,"CX_DOT_X_DOT":49553.85,"CY_DOT_X":72927.74,"CY_DOT_Y":43174.7,"CY_DOT_Z":36873.19,"CY_DOT_X_DOT":16180.63,"CY_DOT_Y_DOT":66846.83,"CZ_DOT_X":5963.95,"CZ_DOT_Y":27599.73,"CZ_DOT_Z":89300.96,"CZ_DOT_X_DOT":46436.4,"CZ_DOT_Y_DOT":95586.96,"CZ_DOT_Z_DOT":54689.3,"USER_DEFINED_BIP_0044_TYPE":4179520123,"USER_DEFINED_OBJECT_DESIGNATOR":"DIG?D%|t?v","USER_DEFINED_EARTH_MODEL":"%Zm<.#lh:m","USER_DEFINED_EPOCH_TIMESTAMP":99906.9,"USER_DEFINED_MICROSECONDS":27011.4},{"CCSDS_OMM_VERS":80103.95,"CREATION_DATE":"2047-11-20T19:09:23.206Z","ORIGINATOR":"Wisozk Group","OBJECT_NAME":"GGLG'HY-'=","OBJECT_ID":"^Z6mv*9,I2","CENTER_NAME":"#KqC{F(c7Q","REF_FRAME":8,"REF_FRAME_EPOCH":"2081-12-21T17:33:12.342Z","TIME_SYSTEM":1,"MEAN_ELEMENT_THEORY":2,"COMMENT":"y\"3ot700@H","EPOCH":"2040-11-30T15:53:25.777Z","SEMI_MAJOR_AXIS":97687.73,"MEAN_MOTION":92770.19,"ECCENTRICITY":17914.55,"INCLINATION":8609.01,"RA_OF_ASC_NODE":16027.9,"ARG_OF_PERICENTER":17369.14,"MEAN_ANOMALY":68163.84,"GM":45376.23,"MASS":30837.39,"SOLAR_RAD_AREA":81656.53,"SOLAR_RAD_COEFF":34657.73,"DRAG_AREA":71925.5,"DRAG_COEFF":34736.23,"EPHEMERIS_TYPE":1,"CLASSIFICATION_TYPE":"S7W\\KR7)O[","NORAD_CAT_ID":2482879244,"ELEMENT_SET_NO":578670773,"REV_AT_EPOCH":77604.85,"BSTAR":24025.61,"MEAN_MOTION_DOT":88551.11,"MEAN_MOTION_DDOT":76010.51,"COV_REF_FRAME":0,"CX_X":18821.64,"CY_X":98936.29,"CY_Y":90644.93,"CZ_X":91806.95,"CZ_Y":96642.68,"CZ_Z":96445.12,"CX_DOT_X":95517.21,"CX_DOT_Y":59438.19,"CX_DOT_Z":22256.06,"CX_DOT_X_DOT":75956.35,"CY_DOT_X":55768.18,"CY_DOT_Y":45317.35,"CY_DOT_Z":73693.46,"CY_DOT_X_DOT":76424.47,"CY_DOT_Y_DOT":62000.41,"CZ_DOT_X":39215.28,"CZ_DOT_Y":33424.9,"CZ_DOT_Z":50812.35,"CZ_DOT_X_DOT":88795.5,"CZ_DOT_Y_DOT":24976.4,"CZ_DOT_Z_DOT":17387.67,"USER_DEFINED_BIP_0044_TYPE":1612653691,"USER_DEFINED_OBJECT_DESIGNATOR":"3(@kM3p17$","USER_DEFINED_EARTH_MODEL":"H#@TPdr'}-","USER_DEFINED_EPOCH_TIMESTAMP":73123.88,"USER_DEFINED_MICROSECONDS":89716.15}]}